[{"OBJECT_NAME":"STARLINK-3352","OBJECT_ID":"2022-005AV","EPOCH":"2026-03-09T21:54:30.530304","MEAN_MOTION":15.2466211,"ECCENTRICITY":0.00016254,"INCLINATION":53.1885,"RA_OF_ASC_NODE":295.7169,"ARG_OF_PERICENTER":135.3968,"MEAN_ANOMALY":224.7162,"EPHEMERIS_TYPE":0,"CLASSIFICATION_TYPE":"U","NORAD_CAT_ID":51147,"ELEMENT_SET_NO":999,"REV_AT_EPOCH":22880,"BSTAR":0.0019228905,"MEAN_MOTION_DOT":0.00048096,"MEAN_MOTION_DDOT":0},{"OBJECT_NAME":"TIANMU-1 13","OBJECT_ID":"2023-205C","EPOCH":"2026-03-10T00:00:50.036832","MEAN_MOTION":15.25862583,"ECCENTRICITY":0.00064025,"INCLINATION":97.3565,"RA_OF_ASC_NODE":92.1641,"ARG_OF_PERICENTER":331.9635,"MEAN_ANOMALY":28.1258,"EPHEMERIS_TYPE":0,"CLASSIFICATION_TYPE":"U","NORAD_CAT_ID":58647,"ELEMENT_SET_NO":999,"REV_AT_EPOCH":12237,"BSTAR":0.00032666188,"MEAN_MOTION_DOT":8.299e-5,"MEAN_MOTION_DDOT":0}]
